{
  "norad_id": 52134,
  "name": "STARLINK-3721",
  "history": [
    {
      "epoch": "2026-04-13T04:22:50.588544Z",
      "apogee_km": 540.6485637223714,
      "perigee_km": 538.8613955083583,
      "latitude_deg": -4.488470199113949e-06,
      "longitude_deg": 7.188732161054419,
      "height_km": 540.6208535561792,
      "semi_major_axis_km": 6917.891979615365,
      "eccentricity": 0.00012917,
      "inclination_deg": 53.2173,
      "raan_deg": 274.2765,
      "arg_perigee_deg": 88.0814,
      "mean_anomaly_deg": 272.0326,
      "mean_motion_rev_day": 15.08836208
    },
    {
      "epoch": "2026-04-14T16:56:42.294048Z",
      "apogee_km": 540.6096105462075,
      "perigee_km": 538.8649226561711,
      "latitude_deg": -4.144406682539099e-05,
      "longitude_deg": 170.38202161548406,
      "height_km": 540.6693065543634,
      "semi_major_axis_km": 6917.874266601189,
      "eccentricity": 0.0001261,
      "inclination_deg": 53.2172,
      "raan_deg": 267.4369,
      "arg_perigee_deg": 92.379,
      "mean_anomaly_deg": 267.7346,
      "mean_motion_rev_day": 15.08842003
    },
    {
      "epoch": "2026-04-15T19:58:15.875616Z",
      "apogee_km": 540.6731900223822,
      "perigee_km": 538.8164305445025,
      "latitude_deg": 2.0905048127611726e-05,
      "longitude_deg": 118.82652871320967,
      "height_km": 540.6840240680733,
      "semi_major_axis_km": 6917.881810283442,
      "eccentricity": 0.0001342,
      "inclination_deg": 53.2163,
      "raan_deg": 262.3812,
      "arg_perigee_deg": 92.6919,
      "mean_anomaly_deg": 267.4227,
      "mean_motion_rev_day": 15.08839535
    },
    {
      "epoch": "2026-04-16T19:49:02.741952Z",
      "apogee_km": 540.6553715486598,
      "perigee_km": 538.8207510823995,
      "latitude_deg": 3.2085040178984125e-05,
      "longitude_deg": 115.69142765475824,
      "height_km": 540.7080193275236,
      "semi_major_axis_km": 6917.87506131553,
      "eccentricity": 0.0001326,
      "inclination_deg": 53.2174,
      "raan_deg": 257.9207,
      "arg_perigee_deg": 94.6399,
      "mean_anomaly_deg": 265.4745,
      "mean_motion_rev_day": 15.08841743
    },
    {
      "epoch": "2026-04-17T16:29:05.349408Z",
      "apogee_km": 540.6864639288897,
      "perigee_km": 538.9156101501694,
      "latitude_deg": 2.263415360247756e-05,
      "longitude_deg": 160.96227776512558,
      "height_km": 540.846911332641,
      "semi_major_axis_km": 6917.938037039529,
      "eccentricity": 0.00012799,
      "inclination_deg": 53.2182,
      "raan_deg": 254.0512,
      "arg_perigee_deg": 99.7509,
      "mean_anomaly_deg": 260.3628,
      "mean_motion_rev_day": 15.0882114
    },
    {
      "epoch": "2026-04-18T19:30:38.181024Z",
      "apogee_km": 540.7102620965234,
      "perigee_km": 538.7884732635812,
      "latitude_deg": -1.940948923999098e-05,
      "longitude_deg": 109.41433884630342,
      "height_km": 540.6749776384438,
      "semi_major_axis_km": 6917.886367680052,
      "eccentricity": 0.0001389,
      "inclination_deg": 53.2183,
      "raan_deg": 249.0,
      "arg_perigee_deg": 91.7799,
      "mean_anomaly_deg": 268.3352,
      "mean_motion_rev_day": 15.08838044
    },
    {
      "epoch": "2026-04-19T16:10:38.790048Z",
      "apogee_km": 540.6513247668081,
      "perigee_km": 538.8623574195008,
      "latitude_deg": 2.537078622848964e-05,
      "longitude_deg": 154.69687690275308,
      "height_km": 540.7356025842291,
      "semi_major_axis_km": 6917.893841093154,
      "eccentricity": 0.0001293,
      "inclination_deg": 53.2178,
      "raan_deg": 245.1338,
      "arg_perigee_deg": 95.319,
      "mean_anomaly_deg": 264.795,
      "mean_motion_rev_day": 15.08835599
    },
    {
      "epoch": "2026-04-20T09:39:53.285184Z",
      "apogee_km": 540.5009355987895,
      "perigee_km": 538.964476737051,
      "latitude_deg": 3.429773039304233e-05,
      "longitude_deg": -111.60299450623211,
      "height_km": 540.5006321713194,
      "semi_major_axis_km": 6917.86970616792,
      "eccentricity": 0.00011105,
      "inclination_deg": 53.2177,
      "raan_deg": 241.8625,
      "arg_perigee_deg": 80.3957,
      "mean_anomaly_deg": 279.7161,
      "mean_motion_rev_day": 15.08843495
    },
    {
      "epoch": "2026-04-21T15:52:12.366336Z",
      "apogee_km": 540.5245314446265,
      "perigee_km": 538.9154379099919,
      "latitude_deg": 6.540563945207338e-05,
      "longitude_deg": 148.42713316919952,
      "height_km": 540.6601703258882,
      "semi_major_axis_km": 6917.856984677309,
      "eccentricity": 0.0001163,
      "inclination_deg": 53.2155,
      "raan_deg": 236.2126,
      "arg_perigee_deg": 93.1647,
      "mean_anomaly_deg": 266.9479,
      "mean_motion_rev_day": 15.08847657
    },
    {
      "epoch": "2026-04-22T14:07:36.424128Z",
      "apogee_km": 540.6914320512024,
      "perigee_km": 538.795932744224,
      "latitude_deg": -8.095249535613318e-06,
      "longitude_deg": 169.49998591878762,
      "height_km": 540.6437331363976,
      "semi_major_axis_km": 6917.880682397713,
      "eccentricity": 0.000137,
      "inclination_deg": 53.2158,
      "raan_deg": 232.0498,
      "arg_perigee_deg": 90.2737,
      "mean_anomaly_deg": 269.8412,
      "mean_motion_rev_day": 15.08839904
    },
    {
      "epoch": "2026-04-23T13:58:23.532384Z",
      "apogee_km": 540.6749275380571,
      "perigee_km": 538.8183059329967,
      "latitude_deg": 6.277803701275715e-05,
      "longitude_deg": 166.36281455612595,
      "height_km": 540.7296246135626,
      "semi_major_axis_km": 6917.883616735527,
      "eccentricity": 0.00013419,
      "inclination_deg": 53.2159,
      "raan_deg": 227.5882,
      "arg_perigee_deg": 95.4048,
      "mean_anomaly_deg": 264.7098,
      "mean_motion_rev_day": 15.08838944
    },
    {
      "epoch": "2026-04-24T16:59:56.788224Z",
      "apogee_km": 540.7191605807147,
      "perigee_km": 538.7793852697869,
      "latitude_deg": 4.37894158820884e-05,
      "longitude_deg": 114.81041860029454,
      "height_km": 540.7077960813059,
      "semi_major_axis_km": 6917.8862729252505,
      "eccentricity": 0.0001402,
      "inclination_deg": 53.2167,
      "raan_deg": 222.5343,
      "arg_perigee_deg": 93.7216,
      "mean_anomaly_deg": 266.3937,
      "mean_motion_rev_day": 15.08838075
    }
  ]
}